0 SL-12 R/B(AUX MOTOR)
1 15774U 85042F   13282.40566050 -.00000073  00000-0  54940-5 0  3098
2 15774 066.5812 222.4300 0029518 284.7657 213.1727 14.24340728473519
0 SL-12 R/B(AUX MOTOR)
1 15774U 85042F   13283.86640708 -.00000142  00000-0 -24367-4 0  3101
2 15774 066.5813 218.6262 0029532 284.0219 143.0601 14.24341445473729
0 SL-12 R/B(AUX MOTOR)
1 15774U 85042F   13286.33944681  .00000031  00000-0  50384-4 0  3128
2 15774 066.5813 212.1865 0029565 282.7501 223.4504 14.24339891474078
0 SL-12 R/B(AUX MOTOR)
1 15774U 85042F   13288.15657093  .00000240  00000-0  14006-3 0  3131
2 15774 066.5813 207.4549 0029568 281.7993 180.6785 14.24339392474331
0 SL-12 R/B(AUX MOTOR)
1 15774U 85042F   13289.42107764  .00000195  00000-0  12083-3 0  3140
2 15774 066.5811 204.1624 0029606 281.1624 184.3529 14.24340017474518
0 SL-12 R/B(AUX MOTOR)
1 15774U 85042F   13291.18741116  .00000074  00000-0  68654-4 0  3154
2 15774 066.5808 199.5632 0029628 280.2355 241.1471 14.24342073474764
0 SL-12 R/B(AUX MOTOR)
1 15774U 85042F   13292.51413381 -.00000041  00000-0  19165-4 0  3161
2 15774 066.5806 196.1085 0029617 279.5742 203.8272 14.24343583474958
0 SL-12 R/B(AUX MOTOR)
1 15774U 85042F   13293.83718256 -.00000095  00000-0 -37957-5 0  3177
2 15774 066.5804 192.6634 0029620 278.8893 147.7037 14.24344237475144
0 SL-12 R/B(AUX MOTOR)
1 15774U 85042F   13294.97012933 -.00000048  00000-0  16012-4 0  3188
2 15774 066.5804 189.7133 0029608 278.3278 196.8225 14.24343987475306
0 SL-12 R/B(AUX MOTOR)
1 15774U 85042F   13296.15625123  .00000044  00000-0  55932-4 0  3191
2 15774 066.5803 186.6247 0029612 277.7445 158.5913 14.24343398475474
